*******************************************************************************
Ephemeris / WWW_USER Fri Mar  7 09:48:54 2025 Pasadena, USA      / Horizons    
*******************************************************************************
Target body name: Pluto (999)                     {source: plu060_merged}
Center body name: Earth (399)                     {source: DE441}
Center-site name: Mauna Kea
*******************************************************************************
Start time      : A.D. 2018-Oct-15 04:08:00.0000 UT      
Stop  time      : A.D. 2018-Oct-15 16:07:00.0000 UT      
Step-size       : 1 minutes
*******************************************************************************
Target pole/equ : IAU_PLUTO                       {East-longitude positive}
Target radii    : 1188.3, 1188.3, 1188.3 km       {Equator_a, b, pole_c}       
Center geodetic : 204.5278, 19.8260847, 4.21024   {E-lon(deg),Lat(deg),Alt(km)}
Center cylindric: 204.5278, 6006.35451, 2151.0229 {E-lon(deg),Dxy(km),Dz(km)}
Center pole/equ : ITRF93                          {East-longitude positive}
Center radii    : 6378.137, 6378.137, 6356.752 km {Equator_a, b, pole_c}       
Target primary  : Sun
Vis. interferer : MOON (R_eq= 1737.400) km        {source: DE441}
Rel. light bend : Sun                             {source: plu060_merged}
Rel. lght bnd GM: 1.3271E+11 km^3/s^2                                          
Atmos refraction: NO (AIRLESS)
RA format       : HMS
Time format     : CAL 
Calendar mode   : Mixed Julian/Gregorian
RTS-only print  : NO       
EOP file        : eop.250306.p250602                                           
EOP coverage    : DATA-BASED 1962-JAN-20 TO 2025-MAR-06. PREDICTS-> 2025-JUN-01
Units conversion: 1 au= 149597870.700 km, c= 299792.458 km/s, 1 day= 86400.0 s 
Table cut-offs 1: Elevation (-90.0deg=NO ),Airmass (>38.000=NO), Daylight (YES)
Table cut-offs 2: Solar elongation (  0.0,180.0=NO ),Local Hour Angle( 0.0=NO )
Table cut-offs 3: RA/DEC angular rate (     0.0=NO )                           
*******************************************************************************
 Date__(UT)__HR:MN     R.A._________(ICRF)_________DEC
******************************************************
$$SOE
 2018-Oct-15 08:50  m  19 20 20.765897 -22 08 19.56641
 2018-Oct-15 08:51  m  19 20 20.767191 -22 08 19.56749
 2018-Oct-15 08:52  m  19 20 20.768485 -22 08 19.56856
 2018-Oct-15 08:53  m  19 20 20.769780 -22 08 19.56963
 2018-Oct-15 08:54     19 20 20.771075 -22 08 19.57070
 2018-Oct-15 08:55     19 20 20.772370 -22 08 19.57177
 2018-Oct-15 08:56     19 20 20.773666 -22 08 19.57284
 2018-Oct-15 08:57     19 20 20.774962 -22 08 19.57390
 2018-Oct-15 08:58     19 20 20.776258 -22 08 19.57497
 2018-Oct-15 08:59     19 20 20.777555 -22 08 19.57604
 2018-Oct-15 09:00     19 20 20.778852 -22 08 19.57710
 2018-Oct-15 09:01     19 20 20.780150 -22 08 19.57817
 2018-Oct-15 09:02     19 20 20.781448 -22 08 19.57923
 2018-Oct-15 09:03     19 20 20.782747 -22 08 19.58030
 2018-Oct-15 09:04     19 20 20.784045 -22 08 19.58136
 2018-Oct-15 09:05     19 20 20.785345 -22 08 19.58242
 2018-Oct-15 09:06     19 20 20.786644 -22 08 19.58348
 2018-Oct-15 09:07     19 20 20.787944 -22 08 19.58455
 2018-Oct-15 09:08     19 20 20.789244 -22 08 19.58561
 2018-Oct-15 09:09     19 20 20.790545 -22 08 19.58667
 2018-Oct-15 09:10     19 20 20.791846 -22 08 19.58773
 2018-Oct-15 09:11     19 20 20.793148 -22 08 19.58878
 2018-Oct-15 09:12     19 20 20.794450 -22 08 19.58984
 2018-Oct-15 09:13     19 20 20.795752 -22 08 19.59090
 2018-Oct-15 09:14     19 20 20.797055 -22 08 19.59196
 2018-Oct-15 09:15     19 20 20.798358 -22 08 19.59301
 2018-Oct-15 09:16     19 20 20.799661 -22 08 19.59407
 2018-Oct-15 09:17     19 20 20.800965 -22 08 19.59513
 2018-Oct-15 09:18     19 20 20.802269 -22 08 19.59618
 2018-Oct-15 09:19     19 20 20.803574 -22 08 19.59724
 2018-Oct-15 09:20     19 20 20.804879 -22 08 19.59829
 2018-Oct-15 09:21     19 20 20.806184 -22 08 19.59934
 2018-Oct-15 09:22     19 20 20.807490 -22 08 19.60040
 2018-Oct-15 09:23     19 20 20.808796 -22 08 19.60145
 2018-Oct-15 09:24     19 20 20.810103 -22 08 19.60250
 2018-Oct-15 09:25     19 20 20.811410 -22 08 19.60355
 2018-Oct-15 09:26     19 20 20.812717 -22 08 19.60460
 2018-Oct-15 09:27     19 20 20.814025 -22 08 19.60565
 2018-Oct-15 09:28     19 20 20.815333 -22 08 19.60670
 2018-Oct-15 09:29     19 20 20.816642 -22 08 19.60775
 2018-Oct-15 09:30     19 20 20.817951 -22 08 19.60880
 2018-Oct-15 09:31     19 20 20.819260 -22 08 19.60985
 2018-Oct-15 09:32     19 20 20.820570 -22 08 19.61090
 2018-Oct-15 09:33     19 20 20.821880 -22 08 19.61195
 2018-Oct-15 09:34     19 20 20.823190 -22 08 19.61300
 2018-Oct-15 09:35     19 20 20.824501 -22 08 19.61404
 2018-Oct-15 09:36     19 20 20.825812 -22 08 19.61509
 2018-Oct-15 09:37     19 20 20.827124 -22 08 19.61614
 2018-Oct-15 09:38     19 20 20.828436 -22 08 19.61718
 2018-Oct-15 09:39     19 20 20.829749 -22 08 19.61823
 2018-Oct-15 09:40     19 20 20.831062 -22 08 19.61927
 2018-Oct-15 09:41     19 20 20.832375 -22 08 19.62032
 2018-Oct-15 09:42     19 20 20.833689 -22 08 19.62136
 2018-Oct-15 09:43     19 20 20.835003 -22 08 19.62241
 2018-Oct-15 09:44     19 20 20.836317 -22 08 19.62345
 2018-Oct-15 09:45     19 20 20.837632 -22 08 19.62449
 2018-Oct-15 09:46     19 20 20.838947 -22 08 19.62554
 2018-Oct-15 09:47  s  19 20 20.840263 -22 08 19.62658
 2018-Oct-15 09:48     19 20 20.841579 -22 08 19.62762
 2018-Oct-15 09:49     19 20 20.842895 -22 08 19.62867
 2018-Oct-15 09:50     19 20 20.844212 -22 08 19.62971
 2018-Oct-15 09:51     19 20 20.845530 -22 08 19.63075
 2018-Oct-15 09:52     19 20 20.846847 -22 08 19.63179
 2018-Oct-15 09:53     19 20 20.848165 -22 08 19.63283
 2018-Oct-15 09:54     19 20 20.849484 -22 08 19.63387
 2018-Oct-15 09:55     19 20 20.850802 -22 08 19.63491
 2018-Oct-15 09:56     19 20 20.852122 -22 08 19.63595
 2018-Oct-15 09:57     19 20 20.853441 -22 08 19.63699
 2018-Oct-15 09:58     19 20 20.854761 -22 08 19.63803
 2018-Oct-15 09:59     19 20 20.856082 -22 08 19.63907
 2018-Oct-15 10:00     19 20 20.857403 -22 08 19.64011
 2018-Oct-15 10:01     19 20 20.858724 -22 08 19.64115
 2018-Oct-15 10:02     19 20 20.860045 -22 08 19.64219
 2018-Oct-15 10:03     19 20 20.861368 -22 08 19.64323
 2018-Oct-15 10:04     19 20 20.862690 -22 08 19.64427
 2018-Oct-15 10:05     19 20 20.864013 -22 08 19.64531
 2018-Oct-15 10:06     19 20 20.865336 -22 08 19.64635
 2018-Oct-15 10:07     19 20 20.866660 -22 08 19.64739
 2018-Oct-15 10:08     19 20 20.867984 -22 08 19.64842
 2018-Oct-15 10:09     19 20 20.869308 -22 08 19.64946
 2018-Oct-15 10:10     19 20 20.870633 -22 08 19.65050
 2018-Oct-15 10:11     19 20 20.871958 -22 08 19.65154
 2018-Oct-15 10:12     19 20 20.873284 -22 08 19.65258
 2018-Oct-15 10:13     19 20 20.874610 -22 08 19.65361
 2018-Oct-15 10:14     19 20 20.875936 -22 08 19.65465
 2018-Oct-15 10:15     19 20 20.877263 -22 08 19.65569
 2018-Oct-15 10:16     19 20 20.878590 -22 08 19.65672
 2018-Oct-15 10:17     19 20 20.879918 -22 08 19.65776
 2018-Oct-15 10:18     19 20 20.881246 -22 08 19.65880
 2018-Oct-15 10:19     19 20 20.882574 -22 08 19.65984
 2018-Oct-15 10:20     19 20 20.883903 -22 08 19.66087
 2018-Oct-15 10:21     19 20 20.885232 -22 08 19.66191
 2018-Oct-15 10:22     19 20 20.886562 -22 08 19.66295
 2018-Oct-15 10:23     19 20 20.887892 -22 08 19.66398
 2018-Oct-15 10:24     19 20 20.889222 -22 08 19.66502
 2018-Oct-15 10:25     19 20 20.890553 -22 08 19.66606
 2018-Oct-15 10:26     19 20 20.891884 -22 08 19.66709
 2018-Oct-15 10:27     19 20 20.893215 -22 08 19.66813
 2018-Oct-15 10:28     19 20 20.894547 -22 08 19.66917
 2018-Oct-15 10:29     19 20 20.895880 -22 08 19.67020
 2018-Oct-15 10:30     19 20 20.897213 -22 08 19.67124
 2018-Oct-15 10:31     19 20 20.898546 -22 08 19.67228
 2018-Oct-15 10:32     19 20 20.899879 -22 08 19.67332
 2018-Oct-15 10:33     19 20 20.901213 -22 08 19.67435
 2018-Oct-15 10:34     19 20 20.902548 -22 08 19.67539
 2018-Oct-15 10:35     19 20 20.903882 -22 08 19.67643
 2018-Oct-15 10:36     19 20 20.905217 -22 08 19.67746
 2018-Oct-15 10:37     19 20 20.906553 -22 08 19.67850
 2018-Oct-15 10:38     19 20 20.907889 -22 08 19.67954
 2018-Oct-15 10:39     19 20 20.909225 -22 08 19.68058
 2018-Oct-15 10:40     19 20 20.910562 -22 08 19.68161
 2018-Oct-15 10:41     19 20 20.911899 -22 08 19.68265
 2018-Oct-15 10:42     19 20 20.913237 -22 08 19.68369
 2018-Oct-15 10:43     19 20 20.914575 -22 08 19.68473
 2018-Oct-15 10:44     19 20 20.915913 -22 08 19.68576
 2018-Oct-15 10:45     19 20 20.917252 -22 08 19.68680
 2018-Oct-15 10:46     19 20 20.918591 -22 08 19.68784
 2018-Oct-15 10:47     19 20 20.919930 -22 08 19.68888
 2018-Oct-15 10:48     19 20 20.921270 -22 08 19.68992
 2018-Oct-15 10:49     19 20 20.922610 -22 08 19.69096
 2018-Oct-15 10:50     19 20 20.923951 -22 08 19.69199
 2018-Oct-15 10:51     19 20 20.925292 -22 08 19.69303
 2018-Oct-15 10:52     19 20 20.926633 -22 08 19.69407
 2018-Oct-15 10:53     19 20 20.927975 -22 08 19.69511
 2018-Oct-15 10:54     19 20 20.929317 -22 08 19.69615
 2018-Oct-15 10:55     19 20 20.930660 -22 08 19.69719
 2018-Oct-15 10:56     19 20 20.932003 -22 08 19.69823
 2018-Oct-15 10:57     19 20 20.933346 -22 08 19.69927
 2018-Oct-15 10:58     19 20 20.934690 -22 08 19.70031
 2018-Oct-15 10:59     19 20 20.936034 -22 08 19.70135
 2018-Oct-15 11:00     19 20 20.937379 -22 08 19.70239
 2018-Oct-15 11:01     19 20 20.938724 -22 08 19.70344
 2018-Oct-15 11:02     19 20 20.940069 -22 08 19.70448
 2018-Oct-15 11:03     19 20 20.941415 -22 08 19.70552
 2018-Oct-15 11:04     19 20 20.942761 -22 08 19.70656
 2018-Oct-15 11:05     19 20 20.944108 -22 08 19.70760
 2018-Oct-15 11:06     19 20 20.945455 -22 08 19.70865
 2018-Oct-15 11:07     19 20 20.946802 -22 08 19.70969
 2018-Oct-15 11:08     19 20 20.948150 -22 08 19.71073
 2018-Oct-15 11:09     19 20 20.949498 -22 08 19.71178
 2018-Oct-15 11:10     19 20 20.950846 -22 08 19.71282
